[{"OBJECT_NAME":"OBJECT J","OBJECT_ID":"2023-085J","EPOCH":"2026-03-09T22:47:59.920512","MEAN_MOTION":15.31507187,"ECCENTRICITY":0.00067028,"INCLINATION":97.4828,"RA_OF_ASC_NODE":180.1819,"ARG_OF_PERICENTER":41.7877,"MEAN_ANOMALY":318.3875,"EPHEMERIS_TYPE":0,"CLASSIFICATION_TYPE":"U","NORAD_CAT_ID":57012,"ELEMENT_SET_NO":999,"REV_AT_EPOCH":15156,"BSTAR":0.00064525349,"MEAN_MOTION_DOT":0.00019595,"MEAN_MOTION_DDOT":0},{"OBJECT_NAME":"STARLINK-35332","OBJECT_ID":"2025-224F","EPOCH":"2026-03-09T23:32:12.787584","MEAN_MOTION":15.30215691,"ECCENTRICITY":0.000217,"INCLINATION":53.1598,"RA_OF_ASC_NODE":9.6526,"ARG_OF_PERICENTER":132.5505,"MEAN_ANOMALY":227.5679,"EPHEMERIS_TYPE":0,"CLASSIFICATION_TYPE":"U","NORAD_CAT_ID":65887,"ELEMENT_SET_NO":999,"REV_AT_EPOCH":2490,"BSTAR":0.0011079627,"MEAN_MOTION_DOT":0.00032616,"MEAN_MOTION_DDOT":0}]
